OBJECT_NAME,OBJECT_ID,EPOCH,MEAN_MOTION,ECCENTRICITY,INCLINATION,RA_OF_ASC_NODE,ARG_OF_PERICENTER,MEAN_ANOMALY,EPHEMERIS_TYPE,CLASSIFICATION_TYPE,NORAD_CAT_ID,ELEMENT_SET_NO,REV_AT_EPOCH,BSTAR,MEAN_MOTION_DOT,MEAN_MOTION_DDOT
ONEWEB-0572,2023-004M,2026-06-09T02:10:11.849952,13.17648160,.00018396,87.9137,7.4766,93.1960,266.9382,0,U,55151,999,16641,.2133882E-3,.96E-6,0
ONEWEB-0573,2023-004N,2026-06-09T05:22:17.579712,13.18685709,.00019254,87.9158,337.0549,118.9989,241.1336,0,U,55152,999,16864,.19789044E-4,.21E-6,0
ONEWEB-0588,2023-004P,2026-06-09T05:12:34.401312,13.18684623,.00022735,87.9156,337.0566,99.6229,260.5160,0,U,55153,999,16864,.21551462E-3,.98E-6,0
ONEWEB-0598,2023-004Q,2026-06-09T01:44:50.475552,13.11416877,.00013907,87.8893,22.6840,106.7534,253.3746,0,U,55154,999,16483,.15029153E-2,.545E-5,0
ONEWEB-0599,2023-004R,2026-06-09T03:03:39.767904,13.17648015,.00016413,87.9137,7.4680,84.0600,276.0718,0,U,55155,999,16642,.89248924E-4,.48E-6,0
ONEWEB-0614,2023-004S,2026-06-08T23:47:38.542848,13.11418432,.00020468,87.8893,22.7092,82.6309,277.5052,0,U,55156,999,16476,.17315437E-2,.626E-5,0
ONEWEB-0616,2023-004T,2026-06-09T02:15:04.279392,13.17648153,.0001202,87.9139,7.4780,60.1759,299.9492,0,U,55157,999,16663,.90632959E-4,.48E-6,0
ONEWEB-0617,2023-004U,2026-06-09T01:20:25.602432,13.11418882,.00022344,87.8898,22.6870,87.5910,272.5474,0,U,55158,999,16479,.83047044E-3,.307E-5,0
ONEWEB-0618,2023-004V,2026-06-09T07:42:13.897152,15.13086104,.00106007,86.9107,180.8280,335.1184,24.9543,0,U,55159,999,18107,.20876168E-3,.3729E-4,0
ONEWEB-0619,2023-004W,2026-06-09T03:01:14.613312,13.17648269,.00020929,87.9149,7.4517,75.9276,284.2089,0,U,55160,999,16653,-.81173122E-4,-.19E-6,0
ONEWEB-0620,2023-004X,2026-06-09T03:02:56.897088,13.11420187,.00018041,87.8895,22.6820,92.8206,267.3129,0,U,55161,999,16477,.19349505E-3,.81E-6,0
ONEWEB-0621,2023-004Y,2026-06-09T01:52:09.568128,13.11415839,.00020364,87.8902,22.6795,82.4999,277.6361,0,U,55162,999,16474,.12181473E-2,.444E-5,0
ONEWEB-0622,2023-004Z,2026-06-09T01:59:29.181696,13.11415269,.0002471,87.8904,22.6809,93.9333,266.2077,0,U,55163,999,16473,.73882182E-3,.275E-5,0
ONEWEB-0623,2023-004AA,2026-06-09T01:04:35.882400,13.17648976,.00026139,87.9137,7.4988,82.3690,277.7739,0,U,55164,999,16651,.27646469E-4,.24E-6,0
ONEWEB-0624,2023-004AB,2026-06-09T00:58:21.726336,13.12928576,.00019027,87.8945,352.2074,87.6379,272.4968,0,U,55165,999,16700,-.43893938E-4,-.3E-7,0
ONEWEB-0625,2023-004AC,2026-06-09T02:39:22.452192,13.17648653,.00017367,87.9139,7.4812,82.5948,277.5381,0,U,55166,999,16651,-.29043555E-4,.2E-7,0
ONEWEB-0626,2023-004AD,2026-06-09T02:24:48.002112,13.17649262,.00016832,87.9138,7.4829,99.8218,260.3104,0,U,55167,999,16651,.23594346E-3,.104E-5,0
ONEWEB-0627,2023-004AE,2026-06-09T02:07:45.923808,13.17647440,.00023513,87.9137,7.4858,83.6652,276.4748,0,U,55168,999,16651,-.44251389E-4,-.4E-7,0
ONEWEB-0628,2023-004AF,2026-06-09T05:56:36.953088,13.12443857,.0002473,87.8947,352.2323,82.0479,278.0930,0,U,55169,999,16699,-.10749281E-2,-.374E-5,0
ONEWEB-0629,2023-004AG,2026-06-09T07:00:34.293312,13.17651023,.00019945,87.9135,7.4417,78.3255,281.8100,0,U,55170,999,16654,-.36960378E-4,-.1E-7,0
ONEWEB-0631,2023-004AH,2026-06-09T05:02:51.623808,13.18684515,.00021053,87.9167,337.0231,104.3490,255.7876,0,U,55171,999,16862,.16283769E-3,.77E-6,0
ONEWEB-0709,2023-004AJ,2026-06-09T02:48:17.676864,13.11417704,.0001443,87.8892,22.6862,112.6542,247.4739,0,U,55172,999,16481,-.15440857E-2,-.535E-5,0
ONEWEB-0710,2023-004AK,2026-06-09T01:53:11.935104,13.17648687,.00020164,87.9136,7.4793,87.8447,272.2915,0,U,55173,999,16651,.70330795E-4,.4E-6,0
ONEWEB-0711,2023-004AL,2026-06-09T02:06:49.275648,13.11416121,.00025516,87.8894,22.6787,86.6644,273.4776,0,U,55174,999,16477,.47760523E-4,.3E-6,0
ONEWEB-0713,2023-004AM,2026-06-09T02:33:39.115872,13.11416533,.00022125,87.8896,22.6768,86.1261,274.0120,0,U,55175,999,16476,-.18629745E-2,-.648E-5,0
ONEWEB-0715,2023-004AN,2026-06-09T02:26:19.762368,13.11417192,.00017879,87.8894,22.6784,106.7964,253.3361,0,U,55176,999,16480,-.14089999E-2,-.487E-5,0
ONEWEB-0716,2023-004AP,2026-06-09T01:43:28.729920,13.17648975,.00016697,87.9139,7.4832,80.6537,279.4783,0,U,55177,999,16651,.36618991E-4,.27E-6,0
ONEWEB-0717,2023-004AQ,2026-06-09T06:47:13.151040,13.17648113,.0002389,87.9148,7.4280,92.9063,267.2342,0,U,55178,999,16659,-.34832567E-4,-.1E-7,0
ONEWEB-0719,2023-004AR,2026-06-09T07:01:48.581760,13.17648234,.00018252,87.9145,7.4066,80.9028,279.2310,0,U,55179,999,16654,.37401927E-4,.27E-6,0
ONEWEB-0530,2023-029A,2026-06-09T06:53:15.452160,13.20771077,.00023663,87.9180,276.0442,95.0966,265.0438,0,U,55796,999,16010,.40176776E-4,.29E-6,0
