ONEWEB-0572             
1 55151U 23004M   26160.09041493  .00000096  00000+0  21339-3 0  9996
2 55151  87.9137   7.4766 0001839  93.1960 266.9382 13.17648160166414
ONEWEB-0573             
1 55152U 23004N   26160.22381458  .00000021  00000+0  19789-4 0  9995
2 55152  87.9158 337.0549 0001925 118.9989 241.1336 13.18685709168644
ONEWEB-0588             
1 55153U 23004P   26160.21706483  .00000098  00000+0  21551-3 0  9997
2 55153  87.9156 337.0566 0002273  99.6229 260.5160 13.18684623168645
ONEWEB-0598             
1 55154U 23004Q   26160.07280643  .00000545  00000+0  15029-2 0  9996
2 55154  87.8893  22.6840 0001390 106.7534 253.3746 13.11416877164837
ONEWEB-0599             
1 55155U 23004R   26160.12754361  .00000048  00000+0  89249-4 0  9991
2 55155  87.9137   7.4680 0001641  84.0600 276.0718 13.17648015166429
ONEWEB-0614             
1 55156U 23004S   26159.99141832  .00000626  00000+0  17315-2 0  9993
2 55156  87.8893  22.7092 0002046  82.6309 277.5052 13.11418432164769
ONEWEB-0616             
1 55157U 23004T   26160.09379953  .00000048  00000+0  90633-4 0  9998
2 55157  87.9139   7.4780 0001202  60.1759 299.9492 13.17648153166636
ONEWEB-0617             
1 55158U 23004U   26160.05585188  .00000307  00000+0  83047-3 0  9992
2 55158  87.8898  22.6870 0002234  87.5910 272.5474 13.11418882164795
ONEWEB-0618             
1 55159U 23004V   26160.32099418  .00003729  00000+0  20876-3 0  9991
2 55159  86.9107 180.8280 0010600 335.1184  24.9543 15.13086104181070
ONEWEB-0619             
1 55160U 23004W   26160.12586358 -.00000019  00000+0 -81173-4 0  9994
2 55160  87.9149   7.4517 0002092  75.9276 284.2089 13.17648269166531
ONEWEB-0620             
1 55161U 23004X   26160.12704742  .00000081  00000+0  19350-3 0  9998
2 55161  87.8895  22.6820 0001804  92.8206 267.3129 13.11420187164778
ONEWEB-0621             
1 55162U 23004Y   26160.07788852  .00000444  00000+0  12181-2 0  9994
2 55162  87.8902  22.6795 0002036  82.4999 277.6361 13.11415839164748
ONEWEB-0622             
1 55163U 23004Z   26160.08297664  .00000275  00000+0  73882-3 0  9990
2 55163  87.8904  22.6809 0002471  93.9333 266.2077 13.11415269164733
ONEWEB-0623             
1 55164U 23004AA  26160.04485975  .00000024  00000+0  27646-4 0  9991
2 55164  87.9137   7.4988 0002613  82.3690 277.7739 13.17648976166517
ONEWEB-0624             
1 55165U 23004AB  26160.04052924 -.00000003  00000+0 -43894-4 0  9998
2 55165  87.8945 352.2074 0001902  87.6379 272.4968 13.12928576167006
ONEWEB-0625             
1 55166U 23004AC  26160.11067653  .00000002  00000+0 -29044-4 0  9991
2 55166  87.9139   7.4812 0001736  82.5948 277.5381 13.17648653166513
ONEWEB-0626             
1 55167U 23004AD  26160.10055558  .00000104  00000+0  23594-3 0  9997
2 55167  87.9138   7.4829 0001683  99.8218 260.3104 13.17649262166513
ONEWEB-0627             
1 55168U 23004AE  26160.08872597 -.00000004  00000+0 -44251-4 0  9990
2 55168  87.9137   7.4858 0002351  83.6652 276.4748 13.17647440166519
ONEWEB-0628             
1 55169U 23004AF  26160.24764992 -.00000374  00000+0 -10749-2 0  9991
2 55169  87.8947 352.2323 0002473  82.0479 278.0930 13.12443857166995
ONEWEB-0629             
1 55170U 23004AG  26160.29206358 -.00000001  00000+0 -36960-4 0  9997
2 55170  87.9135   7.4417 0001994  78.3255 281.8100 13.17651023166540
ONEWEB-0631             
1 55171U 23004AH  26160.21031972  .00000077  00000+0  16284-3 0  9995
2 55171  87.9167 337.0231 0002105 104.3490 255.7876 13.18684515168622
ONEWEB-0709             
1 55172U 23004AJ  26160.11687126 -.00000535  00000+0 -15441-2 0  9997
2 55172  87.8892  22.6862 0001443 112.6542 247.4739 13.11417704164818
ONEWEB-0710             
1 55173U 23004AK  26160.07861036  .00000040  00000+0  70331-4 0  9997
2 55173  87.9136   7.4793 0002016  87.8447 272.2915 13.17648687166512
ONEWEB-0711             
1 55174U 23004AL  26160.08807032  .00000030  00000+0  47761-4 0  9995
2 55174  87.8894  22.6787 0002551  86.6644 273.4776 13.11416121164779
ONEWEB-0713             
1 55175U 23004AM  26160.10670273 -.00000648  00000+0 -18630-2 0  9992
2 55175  87.8896  22.6768 0002212  86.1261 274.0120 13.11416533164761
ONEWEB-0715             
1 55176U 23004AN  26160.10161762 -.00000487  00000+0 -14090-2 0  9998
2 55176  87.8894  22.6784 0001787 106.7964 253.3361 13.11417192164807
ONEWEB-0716             
1 55177U 23004AP  26160.07186030  .00000027  00000+0  36619-4 0  9991
2 55177  87.9139   7.4832 0001669  80.6537 279.4783 13.17648975166519
ONEWEB-0717             
1 55178U 23004AQ  26160.28279110 -.00000001  00000+0 -34833-4 0  9997
2 55178  87.9148   7.4280 0002389  92.9063 267.2342 13.17648113166595
ONEWEB-0719             
1 55179U 23004AR  26160.29292340  .00000027  00000+0  37402-4 0  9990
2 55179  87.9145   7.4066 0001825  80.9028 279.2310 13.17648234166544
ONEWEB-0530             
1 55796U 23029A   26160.28698440  .00000029  00000+0  40177-4 0  9997
2 55796  87.9180 276.0442 0002366  95.0966 265.0438 13.20771077160105
